ONEWEB-0012             
1 44057U 19010A   24200.53712867  .00000091  00000+0  20540-3 0  9991
2 44057  87.9110   7.8936 0002107  67.3197 292.8156 13.16593570259665
ONEWEB-0010             
1 44058U 19010B   24199.87848909 -.00000008  00000+0 -54615-4 0  9994
2 44058  87.9111   8.0042 0001412  75.4334 284.6954 13.16593995259597
ONEWEB-0008             
1 44059U 19010C   24199.90381085  .00000016  00000+0  82079-5 0  9999
2 44059  87.9111   8.0005 0001960  98.3623 261.7730 13.16592678259719
ONEWEB-0007             
1 44060U 19010D   24199.91584905 -.00000018  00000+0 -80684-4 0  9991
2 44060  87.9024  38.3576 0001904  74.8035 285.3306 13.15546823259437
ONEWEB-0006             
1 44061U 19010E   24199.91980951  .00000153  00000+0  37334-3 0  9994
2 44061  87.9013  38.3372 0001763  77.0732 283.0595 13.15548079259487
ONEWEB-0011             
1 44062U 19010F   24199.58546111 -.00000110  00000+0 -32550-3 0  9994
2 44062  87.9017  38.4050 0001534  85.3599 274.7707 13.15546552259436
ONEWEB-0013             
1 45131U 20008A   24199.91684594 -.00000005  00000+0 -52323-4 0  9990
2 45131  87.8622 193.4729 0002963  82.3217 277.8246 13.09377781214556
ONEWEB-0017             
1 45132U 20008B   24200.48132121 -.00000073  00000+0 -24423-3 0  9994
2 45132  87.8949 175.2295 0001790  80.5782 279.5548 13.10370041217213
